H1 CPF 01  gfz 2021 06 25 00  6761 tandemx   
H2 1003001  6202 36605    2021 06 25 00 59 42 2021 06 30 00 00 42   120 1 1  0 0 0
H9
10 0 59393  75582.000000  0   -3909849.223   2967020.916   4823564.576
10 0 59393  75702.000000  0   -4245895.373   3490084.316   4143241.445
10 0 59393  75822.000000  0   -4499051.910   3957293.064   3389971.952
10 0 59393  75942.000000  0   -4665937.008   4358982.526   2577003.400
10 0 59393  76062.000000  0   -4744845.698   4686595.525   1718646.948
10 0 59393  76182.000000  0   -4735762.279   4932867.467    830021.081
10 0 59393  76302.000000  0   -4640338.913   5091986.248    -73221.125
10 0 59393  76422.000000  0   -4461841.354   5159725.509   -975175.589
10 0 59393  76542.000000  0   -4205060.198   5133546.240  -1859978.531
10 0 59393  76662.000000  0   -3876189.792   5012661.995  -2712093.349
10 0 59393  76782.000000  0   -3482682.355   4798069.658  -3516590.142
10 0 59393  76902.000000  0   -3033077.449   4492542.252  -4259409.882
10 0 59393  77022.000000  0   -2536814.162   4100587.146  -4927607.541
10 0 59393  77142.000000  0   -2004031.065   3628372.425  -5509570.849
10 0 59393  77262.000000  0   -1445358.501   3083623.186  -5995214.214
10 0 59393  77382.000000  0    -871706.289   2475488.104  -6376143.904
10 0 59393  77502.000000  0    -294052.084   1814380.815  -6645791.206
10 0 59393  77622.000000  0     276764.913   1111800.440  -6799514.441
10 0 59393  77742.000000  0     830242.016    380133.476  -6834670.784
10 0 59393  77862.000000  0    1356402.346   -367560.528  -6750657.498
10 0 59393  77982.000000  0    1845970.241  -1117777.321  -6548919.638
10 0 59393  78102.000000  0    2290530.590  -1856805.166  -6232927.644
10 0 59393  78222.000000  0    2682671.732  -2570969.027  -5808124.377
10 0 59393  78342.000000  0    3016109.329  -3246879.654  -5281842.909
10 0 59393  78462.000000  0    3285790.264  -3871685.576  -4663190.755
10 0 59393  78582.000000  0    3487971.316  -4433318.420  -3962901.222
10 0 59393  78702.000000  0    3620273.208  -4920728.835  -3193158.058
10 0 59393  78822.000000  0    3681710.206  -5324110.892  -2367392.298
10 0 59393  78942.000000  0    3672691.212  -5635108.001  -1500051.046
10 0 59393  79062.000000  0    3594992.789  -5846992.886   -606344.496
10 0 59393  79182.000000  0    3451703.953  -5954818.841    298025.295
10 0 59393  79302.000000  0    3247142.743  -5955536.051   1197146.928
10 0 59393  79422.000000  0    2986748.794  -5848071.497   2075188.345
10 0 59393  79542.000000  0    2676951.909  -5633366.888   2916685.805
10 0 59393  79662.000000  0    2325020.817  -5314375.921   3706823.270
10 0 59393  79782.000000  0    1938897.563  -4896022.142   4431698.265
10 0 59393  79902.000000  0    1527020.838  -4385117.368   5078569.827
10 0 59393  80022.000000  0    1098143.566  -3790243.302   5636082.878
10 0 59393  80142.000000  0     661146.790  -3121598.292   6094466.091
10 0 59393  80262.000000  0     224855.791  -2390814.091   6445696.783
10 0 59393  80382.000000  0    -202136.921  -1610748.270   6683634.281
10 0 59393  80502.000000  0    -611639.178   -795255.723   6804121.576
10 0 59393  80622.000000  0    -996015.121     41059.048   6805054.629
10 0 59393  80742.000000  0   -1348326.843    883103.976   6686416.660
10 0 59393  80862.000000  0   -1662459.179   1715571.233   6450278.035
10 0 59393  80982.000000  0   -1933226.115   2523214.683   6100762.505
10 0 59393  81102.000000  0   -2156457.133   3291129.446   5643979.465
10 0 59393  81222.000000  0   -2329061.825   4005028.611   5087923.010
10 0 59393  81342.000000  0   -2449072.876   4651513.636   4442339.056
10 0 59393  81462.000000  0   -2515665.509   5218332.821   3718559.493
10 0 59393  81582.000000  0   -2529152.920   5694621.906   2929305.760
10 0 59393  81702.000000  0   -2490957.232   6071120.373   2088464.836
10 0 59393  81822.000000  0   -2403557.114   6340359.319   1210842.374
10 0 59393  81942.000000  0   -2270412.482   6496815.885    311896.659
10 0 59393  82062.000000  0   -2095868.464   6537030.096   -592541.021
10 0 59393  82182.000000  0   -1885041.326   6459681.453  -1486554.461
10 0 59393  82302.000000  0   -1643687.815   6265620.572  -2354434.602
10 0 59393  82422.000000  0   -1378061.709   5957852.865  -3180962.525
10 0 59393  82542.000000  0   -1094763.447   5541482.485  -3951677.941
10 0 59393  82662.000000  0    -800586.273   5023616.606  -4653132.246
10 0 59393  82782.000000  0    -502362.023   4413231.926  -5273118.916
10 0 59393  82902.000000  0    -206809.966   3721008.970  -5800879.215
10 0 59393  83022.000000  0      79608.218   2959135.851  -6227280.288
10 0 59393  83142.000000  0     350823.486   2141086.594  -6544961.639
10 0 59393  83262.000000  0     601282.008   1281381.177  -6748450.417
10 0 59393  83382.000000  0     826054.207    395329.397  -6834246.751
10 0 59393  83502.000000  0    1020928.020   -501237.581  -6800877.200
10 0 59393  83622.000000  0    1182485.069  -1392244.437  -6648916.309
10 0 59393  83742.000000  0    1308158.913  -2261651.784  -6380976.465
10 0 59393  83862.000000  0    1396275.561  -3093737.057  -6001669.090
10 0 59393  83982.000000  0    1446075.097  -3873375.478  -5517535.567
10 0 59393  84102.000000  0    1457713.086  -4586315.570  -4936944.281
10 0 59393  84222.000000  0    1432243.457  -5219441.232  -4269956.561
10 0 59393  84342.000000  0    1371581.616  -5761019.742  -3528164.018
10 0 59393  84462.000000  0    1278447.740  -6200929.094  -2724495.225
10 0 59393  84582.000000  0    1156292.722  -6530858.551  -1872995.779
10 0 59393  84702.000000  0    1009207.588  -6744478.144   -988584.307
10 0 59393  84822.000000  0     841817.221  -6837571.361    -86788.413
10 0 59393  84942.000000  0     659162.043  -6808126.662    816533.444
10 0 59393  85062.000000  0     466570.431  -6656386.142   1705478.268
10 0 59393  85182.000000  0     269524.956  -6384849.208   2564388.101
10 0 59393  85302.000000  0      73525.846  -5998229.050   3378136.026
10 0 59393  85422.000000  0    -116045.345  -5503362.998   4132399.224
10 0 59393  85542.000000  0    -294057.716  -4909083.351   4813914.106
10 0 59393  85662.000000  0    -455755.179  -4226049.931   5410711.081
10 0 59393  85782.000000  0    -596869.735  -3466549.198   5912323.465
10 0 59393  85902.000000  0    -713721.983  -2644263.008   6309967.723
10 0 59393  86022.000000  0    -803306.463  -1774014.598   6596689.562
10 0 59393  86142.000000  0    -863360.464   -871498.752   6767478.907
10 0 59393  86262.000000  0    -892415.644     47002.874   6819353.551
10 0 59393  86382.000000  0    -889831.193    964916.123   6751408.180
10 0 59394    102.000000  0    -855806.907   1865673.111   6564829.122
10 0 59394    222.000000  0    -791376.751   2733010.744   6262874.756
10 0 59394    342.000000  0    -698383.514   3551264.532   5850822.309
10 0 59394    462.000000  0    -579434.840   4305653.937   5335880.658
10 0 59394    582.000000  0    -437840.906   4982553.225   4727070.185
10 0 59394    702.000000  0    -277535.350   5569745.781   4035070.713
10 0 59394    822.000000  0    -102979.928   6056651.810   3272036.565
10 0 59394    942.000000  0      80942.831   6434529.350   2451388.555
10 0 59394   1062.000000  0     269049.282   6696645.442   1587573.869
10 0 59394   1182.000000  0     455983.759   6838401.993    695805.506
10 0 59394   1302.000000  0     636352.557   6857421.588   -208212.144
10 0 59394   1422.000000  0     804859.939   6753588.876  -1108568.696
10 0 59394   1542.000000  0     956441.232   6529045.406  -1989436.506
10 0 59394   1662.000000  0    1086390.237   6188140.221  -2835355.931
10 0 59394   1782.000000  0    1190478.666   5737337.051  -3631511.780
10 0 59394   1902.000000  0    1265064.683   5185080.705  -4363995.036
10 0 59394   2022.000000  0    1307187.699   4541626.418  -5020044.425
10 0 59394   2142.000000  0    1314647.301   3818837.373  -5588262.761
10 0 59394   2262.000000  0    1286064.510   3029957.012  -6058806.363
10 0 59394   2382.000000  0    1220924.646   2189359.220  -6423545.204
10 0 59394   2502.000000  0    1119600.997   1312283.837  -6676190.808
10 0 59394   2622.000000  0     983359.624    414562.366  -6812394.865
10 0 59394   2742.000000  0     814344.983   -487663.988  -6829816.213
10 0 59394   2862.000000  0     615546.401  -1378228.806  -6728155.665
10 0 59394   2982.000000  0     390746.354  -2241221.957  -6509159.103
10 0 59394   3102.000000  0     144451.554  -3061265.799  -6176592.347
10 0 59394   3222.000000  0    -118193.967  -3823786.224  -5736184.649
10 0 59394   3342.000000  0    -391510.741  -4515270.263  -5195538.945
10 0 59394   3462.000000  0    -669399.836  -5123507.947  -4564012.450
10 0 59394   3582.000000  0    -945471.901  -5637814.673  -3852566.119
10 0 59394   3702.000000  0   -1213186.467  -6049228.651  -3073583.770
10 0 59394   3822.000000  0   -1465998.349  -6350678.551  -2240663.454
10 0 59394   3942.000000  0   -1697508.399  -6537118.090  -1368383.685
10 0 59394   4062.000000  0   -1901614.549  -6605622.776   -472047.122
10 0 59394   4182.000000  0   -2072659.495  -6555444.992    432592.697
10 0 59394   4302.000000  0   -2205571.497  -6388025.384   1329615.528
10 0 59394   4422.000000  0   -2295994.241  -6106960.031   2203223.458
10 0 59394   4542.000000  0   -2340402.127  -5717923.768   3038028.429
10 0 59394   4662.000000  0   -2336197.599  -5228551.514   3819331.199
10 0 59394   4782.000000  0   -2281788.401  -4648281.467   4533385.294
10 0 59394   4902.000000  0   -2176643.458  -3988165.240   5167641.141
10 0 59394   5022.000000  0   -2021326.499  -3260648.600   5710967.217
10 0 59394   5142.000000  0   -1817505.298  -2479327.425   6153842.140
10 0 59394   5262.000000  0   -1567936.888  -1658687.732   6488515.774
10 0 59394   5382.000000  0   -1276430.434   -813833.291   6709139.517
10 0 59394   5502.000000  0    -947788.852     39795.602   6811861.941
10 0 59394   5622.000000  0    -587729.975    886703.675   6794891.037
99
